start=new Date('2021-11-02T00:00:00.000Z').valueOf();
sats=[{"EPOCH":"2021-11-01T16:43:35.832864","PERIOD":"95.592","REV_AT_EPOCH":"2725","TLE_LINE2":"2 48603  53.0516  44.9076 0001385  88.9231 271.1917 15.06405995 27259","MEAN_ANOMALY":"271.1917","OBJECT_ID":"2021-041BC","REF_FRAME":"TEME","PERIAPSIS":"546.236","SEMIMAJOR_AXIS":"6925.330","TLE_LINE1":"1 48603U 21041BC  21305.69694251  .00000538  00000-0  54997-4 0  9996","CENTER_NAME":"EARTH","TIME_SYSTEM":"UTC","LAUNCH_DATE":"2021-05-15","NORAD_CAT_ID":"48603","MEAN_MOTION":"15.06405995","SITE":"AFETR","CLASSIFICATION_TYPE":"U","INCLINATION":"53.0516","RA_OF_ASC_NODE":"44.9076","OBJECT_NAME":"STARLINK-2714","OBJECT_TYPE":"PAYLOAD","FILE":"3196819","BSTAR":"0.00005499700000","RCS_SIZE":"LARGE","ECCENTRICITY":"0.00013850","MEAN_MOTION_DOT":"0.00000538","ELEMENT_SET_NO":"999","MEAN_MOTION_DDOT":"0.0000000000000","COUNTRY_CODE":"US","DECAY_DATE":null,"MEAN_ELEMENT_THEORY":"SGP4","ARG_OF_PERICENTER":"88.9231","EPHEMERIS_TYPE":"0","APOAPSIS":"548.154","GP_ID":"188696508"},{"TLE_LINE2":"2 48604  53.0556  74.8693 0001440  92.0896 268.0258 15.06403516 26839","PERIOD":"95.592","REV_AT_EPOCH":"2683","EPOCH":"2021-11-01T16:46:17.295456","LAUNCH_DATE":"2021-05-15","TLE_LINE1":"1 48604U 21041BD  21305.69881129  .00000886  00000-0  78364-4 0  9999","TIME_SYSTEM":"UTC","SEMIMAJOR_AXIS":"6925.338","CENTER_NAME":"EARTH","OBJECT_ID":"2021-041BD","MEAN_ANOMALY":"268.0258","REF_FRAME":"TEME","PERIAPSIS":"546.206","INCLINATION":"53.0556","SITE":"AFETR","CLASSIFICATION_TYPE":"U","MEAN_MOTION":"15.06403516","NORAD_CAT_ID":"48604","FILE":"3196819","OBJECT_NAME":"STARLINK-2757","OBJECT_TYPE":"PAYLOAD","RA_OF_ASC_NODE":"74.8693","MEAN_MOTION_DOT":"0.00000886","ECCENTRICITY":"0.00014400","BSTAR":"0.00007836400000","RCS_SIZE":"LARGE","MEAN_MOTION_DDOT":"0.0000000000000","ELEMENT_SET_NO":"999","DECAY_DATE":null,"MEAN_ELEMENT_THEORY":"SGP4","ARG_OF_PERICENTER":"92.0896","COUNTRY_CODE":"US","GP_ID":"188695700","APOAPSIS":"548.200","EPHEMERIS_TYPE":"0"},{"COUNTRY_CODE":"US","ARG_OF_PERICENTER":"71.1113","MEAN_ELEMENT_THEORY":"SGP4","DECAY_DATE":null,"EPHEMERIS_TYPE":"0","APOAPSIS":"548.035","GP_ID":"188695819","RCS_SIZE":"LARGE","BSTAR":"0.00010472000000","ECCENTRICITY":"0.00012180","MEAN_MOTION_DOT":"0.00001279","ELEMENT_SET_NO":"999","MEAN_MOTION_DDOT":"0.0000000000000","NORAD_CAT_ID":"48638","MEAN_MOTION":"15.06407175","CLASSIFICATION_TYPE":"U","SITE":"AFETR","INCLINATION":"53.0574","RA_OF_ASC_NODE":"49.7820","OBJECT_TYPE":"PAYLOAD","OBJECT_NAME":"STARLINK-2758","FILE":"3196819","EPOCH":"2021-11-01T17:12:07.802208","PERIOD":"95.592","REV_AT_EPOCH":"2428","TLE_LINE2":"2 48638  53.0574  49.7820 0001218  71.1113 289.0008 15.06407175 24280","PERIAPSIS":"546.348","REF_FRAME":"TEME","MEAN_ANOMALY":"289.0008","OBJECT_ID":"2021-044A","SEMIMAJOR_AXIS":"6925.327","TLE_LINE1":"1 48638U 21044A   21305.71675697  .00001279  00000-0  10472-3 0  9995","CENTER_NAME":"EARTH","TIME_SYSTEM":"UTC","LAUNCH_DATE":"2021-05-26"},{"SITE":"AFETR","CLASSIFICATION_TYPE":"U","INCLINATION":"53.0548","NORAD_CAT_ID":"48639","MEAN_MOTION":"15.06396510","OBJECT_NAME":"STARLINK-2739","OBJECT_TYPE":"PAYLOAD","FILE":"3196819","RA_OF_ASC_NODE":"49.8447","PERIOD":"95.592","REV_AT_EPOCH":"2428","TLE_LINE2":"2 48639  53.0548  49.8447 0001236  83.5476 276.5653 15.06396510 24284","EPOCH":"2021-11-01T16:50:54.350880","LAUNCH_DATE":"2021-05-26","MEAN_ANOMALY":"276.5653","OBJECT_ID":"2021-044B","PERIAPSIS":"546.368","REF_FRAME":"TEME","SEMIMAJOR_AXIS":"6925.359","TLE_LINE1":"1 48639U 21044B   21305.70201795  .00000419  00000-0  47038-4 0  9993","CENTER_NAME":"EARTH","TIME_SYSTEM":"UTC","DECAY_DATE":null,"MEAN_ELEMENT_THEORY":"SGP4","ARG_OF_PERICENTER":"83.5476","COUNTRY_CODE":"US","APOAPSIS":"548.080","GP_ID":"188696397","EPHEMERIS_TYPE":"0","ECCENTRICITY":"0.00012360","MEAN_MOTION_DOT":"0.00000419","BSTAR":"0.00004703800000","RCS_SIZE":"LARGE","MEAN_MOTION_DDOT":"0.0000000000000","ELEMENT_SET_NO":"999"},{"EPHEMERIS_TYPE":"0","APOAPSIS":"548.085","GP_ID":"188696050","COUNTRY_CODE":"US","DECAY_DATE":null,"MEAN_ELEMENT_THEORY":"SGP4","ARG_OF_PERICENTER":"80.1433","ELEMENT_SET_NO":"999","MEAN_MOTION_DDOT":"0.0000000000000","BSTAR":"0.00015478000000","RCS_SIZE":"LARGE","ECCENTRICITY":"0.00012660","MEAN_MOTION_DOT":"0.00002025","RA_OF_ASC_NODE":"49.4024","OBJECT_NAME":"STARLINK-2736","OBJECT_TYPE":"PAYLOAD","FILE":"3196819","NORAD_CAT_ID":"48640","MEAN_MOTION":"15.06401725","SITE":"AFETR","CLASSIFICATION_TYPE":"U","INCLINATION":"53.0570","MEAN_ANOMALY":"279.9699","OBJECT_ID":"2021-044C","REF_FRAME":"TEME","PERIAPSIS":"546.332","SEMIMAJOR_AXIS":"6925.343","TLE_LINE1":"1 48640U 21044C   21305.80153636  .00002025  00000-0  15478-3 0  9993","CENTER_NAME":"EARTH","TIME_SYSTEM":"UTC","LAUNCH_DATE":"2021-05-26","EPOCH":"2021-11-01T19:14:12.741504","PERIOD":"95.592","REV_AT_EPOCH":"2429","TLE_LINE2":"2 48640  53.0570  49.4024 0001266  80.1433 279.9699 15.06401725 24290"},{"FILE":"3196301","OBJECT_NAME":"STARLINK-2754","OBJECT_TYPE":"PAYLOAD","RA_OF_ASC_NODE":"55.4219","INCLINATION":"53.0554","SITE":"AFETR","CLASSIFICATION_TYPE":"U","MEAN_MOTION":"15.06386376","NORAD_CAT_ID":"48641","LAUNCH_DATE":"2021-05-26","TLE_LINE1":"1 48641U 21044D   21305.57534480 -.00000541  00000-0 -17467-4 0  9992","SEMIMAJOR_AXIS":"6925.390","TIME_SYSTEM":"UTC","CENTER_NAME":"EARTH","OBJECT_ID":"2021-044D","MEAN_ANOMALY":"268.6737","REF_FRAME":"TEME","PERIAPSIS":"546.374","TLE_LINE2":"2 48641  53.0554  55.4219 0001272  91.4398 268.6737 15.06386376 24199","PERIOD":"95.593","REV_AT_EPOCH":"2419","EPOCH":"2021-11-01T13:48:29.790720","GP_ID":"188661170","APOAPSIS":"548.136","EPHEMERIS_TYPE":"0","MEAN_ELEMENT_THEORY":"SGP4","DECAY_DATE":null,"ARG_OF_PERICENTER":"91.4398","COUNTRY_CODE":"US","MEAN_MOTION_DDOT":"0.0000000000000","ELEMENT_SET_NO":"999","MEAN_MOTION_DOT":"-0.00000541","ECCENTRICITY":"0.00012720","BSTAR":"-0.00001746700000","RCS_SIZE":"LARGE"},{"MEAN_MOTION_DDOT":"0.0000000000000","ELEMENT_SET_NO":"999","MEAN_MOTION_DOT":"-0.00000518","ECCENTRICITY":"0.00011000","RCS_SIZE":"LARGE","BSTAR":"-0.00001590400000","GP_ID":"188696166","APOAPSIS":"547.978","EPHEMERIS_TYPE":"0","ARG_OF_PERICENTER":"82.4642","DECAY_DATE":null,"MEAN_ELEMENT_THEORY":"SGP4","COUNTRY_CODE":"US","LAUNCH_DATE":"2021-05-26","TLE_LINE1":"1 48642U 21044E   21305.78818127 -.00000518  00000-0 -15904-4 0  9997","SEMIMAJOR_AXIS":"6925.351","CENTER_NAME":"EARTH","TIME_SYSTEM":"UTC","PERIAPSIS":"546.454","REF_FRAME":"TEME","MEAN_ANOMALY":"277.6472","OBJECT_ID":"2021-044E","TLE_LINE2":"2 48642  53.0556  54.4586 0001100  82.4642 277.6472 15.06399296 24225","REV_AT_EPOCH":"2422","PERIOD":"95.592","EPOCH":"2021-11-01T18:54:58.861728","FILE":"3196819","OBJECT_TYPE":"PAYLOAD","OBJECT_NAME":"STARLINK-2646","RA_OF_ASC_NODE":"54.4586","INCLINATION":"53.0556","CLASSIFICATION_TYPE":"U","SITE":"AFETR","MEAN_MOTION":"15.06399296","NORAD_CAT_ID":"48642"},{"ELEMENT_SET_NO":"999","MEAN_MOTION_DDOT":"0.0000000000000","RCS_SIZE":"LARGE","BSTAR":"0.00007820900000","ECCENTRICITY":"0.00013730","MEAN_MOTION_DOT":"0.00000884","EPHEMERIS_TYPE":"0","APOAPSIS":"548.172","GP_ID":"188663098","COUNTRY_CODE":"US","ARG_OF_PERICENTER":"97.1249","MEAN_ELEMENT_THEORY":"SGP4","DECAY_DATE":null,"PERIAPSIS":"546.271","REF_FRAME":"TEME","OBJECT_ID":"2021-044F","MEAN_ANOMALY":"262.9896","CENTER_NAME":"EARTH","TLE_LINE1":"1 48643U 21044F   21305.57164391  .00000884  00000-0  78209-4 0  9993","SEMIMAJOR_AXIS":"6925.357","TIME_SYSTEM":"UTC","LAUNCH_DATE":"2021-05-26","EPOCH":"2021-11-01T13:43:10.033824","PERIOD":"95.592","REV_AT_EPOCH":"2509","TLE_LINE2":"2 48643  53.0564  55.4329 0001373  97.1249 262.9896 15.06397403 25090","RA_OF_ASC_NODE":"55.4329","OBJECT_TYPE":"PAYLOAD","OBJECT_NAME":"STARLINK-2704","FILE":"3196418","NORAD_CAT_ID":"48643","MEAN_MOTION":"15.06397403","CLASSIFICATION_TYPE":"U","SITE":"AFETR","INCLINATION":"53.0564"},{"DECAY_DATE":null,"MEAN_ELEMENT_THEORY":"SGP4","ARG_OF_PERICENTER":"86.3112","COUNTRY_CODE":"US","GP_ID":"188661748","APOAPSIS":"548.082","EPHEMERIS_TYPE":"0","MEAN_MOTION_DOT":"-0.00000058","ECCENTRICITY":"0.00011920","BSTAR":"0.00001500500000","RCS_SIZE":"LARGE","MEAN_MOTION_DDOT":"0.0000000000000","ELEMENT_SET_NO":"999","INCLINATION":"53.0570","SITE":"AFETR","CLASSIFICATION_TYPE":"U","MEAN_MOTION":"15.06385972","NORAD_CAT_ID":"48644","FILE":"3196301","OBJECT_NAME":"STARLINK-2695","OBJECT_TYPE":"PAYLOAD","RA_OF_ASC_NODE":"55.4531","TLE_LINE2":"2 48644  53.0570  55.4531 0001192  86.3112 273.8014 15.06385972 24192","PERIOD":"95.593","REV_AT_EPOCH":"2419","EPOCH":"2021-11-01T13:37:52.887936","LAUNCH_DATE":"2021-05-26","CENTER_NAME":"EARTH","TLE_LINE1":"1 48644U 21044G   21305.56797324 -.00000058  00000-0  15005-4 0  9990","SEMIMAJOR_AXIS":"6925.392","TIME_SYSTEM":"UTC","MEAN_ANOMALY":"273.8014","OBJECT_ID":"2021-044G","PERIAPSIS":"546.431","REF_FRAME":"TEME"},{"MEAN_MOTION_DOT":"0.00001499","ECCENTRICITY":"0.00013130","BSTAR":"0.00011948000000","RCS_SIZE":"LARGE","MEAN_MOTION_DDOT":"0.0000000000000","ELEMENT_SET_NO":"999","DECAY_DATE":null,"MEAN_ELEMENT_THEORY":"SGP4","ARG_OF_PERICENTER":"82.3874","COUNTRY_CODE":"US","GP_ID":"188695935","APOAPSIS":"548.121","EPHEMERIS_TYPE":"0","TLE_LINE2":"2 48645  53.0579  54.2742 0001313  82.3874 277.7264 15.06400502 24231","PERIOD":"95.592","REV_AT_EPOCH":"2423","EPOCH":"2021-11-01T19:54:42.682752","LAUNCH_DATE":"2021-05-26","SEMIMAJOR_AXIS":"6925.347","TLE_LINE1":"1 48645U 21044H   21305.82966068  .00001499  00000-0  11948-3 0  9993","TIME_SYSTEM":"UTC","CENTER_NAME":"EARTH","MEAN_ANOMALY":"277.7264","OBJECT_ID":"2021-044H","REF_FRAME":"TEME","PERIAPSIS":"546.303","INCLINATION":"53.0579","SITE":"AFETR","CLASSIFICATION_TYPE":"U","MEAN_MOTION":"15.06400502","NORAD_CAT_ID":"48645","FILE":"3196819","OBJECT_NAME":"STARLINK-2733","OBJECT_TYPE":"PAYLOAD","RA_OF_ASC_NODE":"54.2742"}];
